ALOS (DAICHI)           
1 28931U 06002A   26040.86281309  .00001744  00000+0  30100-3 0  9992
2 28931  98.1170 356.9689 0001962  64.1254 296.0153 14.69716891 69392
H-2A R/B                
1 28932U 06002B   26040.36139518  .00009109  00000+0  46368-3 0  9998
2 28932  98.2360 184.9729 0052784 338.7408  21.1628 15.15846943 90143
RESURS-DK 1             
1 29228U 06021A   26040.82789505  .00003101  00000+0  18338-3 0  9998
2 29228  69.9346 309.0857 0004518 203.9526 156.1430 15.12582026 83316
CZ-4B R/B               
1 29507U 06046C   26040.70291551  .00004862  00000+0  24890-3 0  9996
2 29507  97.5653  85.6849 0033564   7.4887 352.6840 15.16600267 55805
CZ-2C R/B               
1 31114U 07010B   26040.82758899  .00000132  00000+0  79452-4 0  9992
2 31114  98.3970 155.5055 0059236  16.3559 343.9512 14.20236438975762
COSMO-SKYMED 1          
1 31598U 07023A   26040.84757579  .00003714  00000+0  33376-3 0  9991
2 31598  97.8858 231.6616 0000845  81.9279 278.2038 14.96310948 10748
COSMOS 2428             
1 31792U 07029A   26040.78297208  .00000316  00000+0  19518-3 0  9991
2 31792  70.9396 261.9238 0007371 307.7855  52.2598 14.12933628960153
SL-16 R/B               
1 31793U 07029B   26040.78270740  .00000387  00000+0  22517-3 0  9995
2 31793  70.9736 231.0453 0001990 278.2943 165.1283 14.14832878961423
KORONAS-FOTON           
1 33504U 09003A   26040.81256044  .00010930  00000+0  25038-3 0  9992
2 33504  82.4318 304.8414 0008957 256.9324 103.0924 15.42579426941443
CZ-2C R/B               
1 37731U 11030B   26040.84509646  .00001773  00000+0  22944-3 0  9991
2 37731  97.8495 358.6783 0054232  81.1633 332.4301 14.81113393785979
H-2A R/B                
1 38341U 12025E   26040.81947148  .00004040  00000+0  36889-3 0  9997
2 38341  98.4677   5.6523 0045688  45.0691 315.4219 14.94918659744050
SHIJIAN-16 (SJ-16)      
1 39358U 13057A   26040.87374275  .00000506  00000+0  52353-4 0  9991
2 39358  74.9707 237.7430 0016792 182.0471 178.0651 14.92239718667359
