CCSDS_OMM_VERS = 2.0
CREATION_DATE  = 
ORIGINATOR     = 

OBJECT_NAME    = ALOS (DAICHI)
OBJECT_ID      = 2006-002A
CENTER_NAME    = EARTH
REF_FRAME      = TEME
TIME_SYSTEM    = UTC
MEAN_ELEMENT_THEORY = SGP/SGP4

EPOCH          = 2026-02-09T20:42:27.050976
MEAN_MOTION    = 14.69716891
ECCENTRICITY   = .0001962
INCLINATION    = 98.1170
RA_OF_ASC_NODE = 356.9689
ARG_OF_PERICENTER = 64.1254
MEAN_ANOMALY   = 296.0153

EPHEMERIS_TYPE = 0
CLASSIFICATION_TYPE = U
NORAD_CAT_ID   = 28931
ELEMENT_SET_NO = 999
REV_AT_EPOCH   = 6939
BSTAR          = .301E-3
MEAN_MOTION_DOT = .1744E-4
MEAN_MOTION_DDOT = 0

CCSDS_OMM_VERS = 2.0
CREATION_DATE  = 
ORIGINATOR     = 

OBJECT_NAME    = H-2A R/B
OBJECT_ID      = 2006-002B
CENTER_NAME    = EARTH
REF_FRAME      = TEME
TIME_SYSTEM    = UTC
MEAN_ELEMENT_THEORY = SGP/SGP4

EPOCH          = 2026-02-09T08:40:24.543552
MEAN_MOTION    = 15.15846943
ECCENTRICITY   = .00527841
INCLINATION    = 98.2360
RA_OF_ASC_NODE = 184.9729
ARG_OF_PERICENTER = 338.7408
MEAN_ANOMALY   = 21.1628

EPHEMERIS_TYPE = 0
CLASSIFICATION_TYPE = U
NORAD_CAT_ID   = 28932
ELEMENT_SET_NO = 999
REV_AT_EPOCH   = 9014
BSTAR          = .46368034E-3
MEAN_MOTION_DOT = .9109E-4
MEAN_MOTION_DDOT = 0

CCSDS_OMM_VERS = 2.0
CREATION_DATE  = 
ORIGINATOR     = 

OBJECT_NAME    = RESURS-DK 1
OBJECT_ID      = 2006-021A
CENTER_NAME    = EARTH
REF_FRAME      = TEME
TIME_SYSTEM    = UTC
MEAN_ELEMENT_THEORY = SGP/SGP4

EPOCH          = 2026-02-09T19:52:10.132320
MEAN_MOTION    = 15.12582026
ECCENTRICITY   = .0004518
INCLINATION    = 69.9346
RA_OF_ASC_NODE = 309.0857
ARG_OF_PERICENTER = 203.9526
MEAN_ANOMALY   = 156.1430

EPHEMERIS_TYPE = 0
CLASSIFICATION_TYPE = U
NORAD_CAT_ID   = 29228
ELEMENT_SET_NO = 999
REV_AT_EPOCH   = 8331
BSTAR          = .18338E-3
MEAN_MOTION_DOT = .3101E-4
MEAN_MOTION_DDOT = 0

CCSDS_OMM_VERS = 2.0
CREATION_DATE  = 
ORIGINATOR     = 

OBJECT_NAME    = CZ-4B R/B
OBJECT_ID      = 2006-046C
CENTER_NAME    = EARTH
REF_FRAME      = TEME
TIME_SYSTEM    = UTC
MEAN_ELEMENT_THEORY = SGP/SGP4

EPOCH          = 2026-02-09T16:52:11.900064
MEAN_MOTION    = 15.16600267
ECCENTRICITY   = .0033564
INCLINATION    = 97.5653
RA_OF_ASC_NODE = 85.6849
ARG_OF_PERICENTER = 7.4887
MEAN_ANOMALY   = 352.6840

EPHEMERIS_TYPE = 0
CLASSIFICATION_TYPE = U
NORAD_CAT_ID   = 29507
ELEMENT_SET_NO = 999
REV_AT_EPOCH   = 5580
BSTAR          = .2489E-3
MEAN_MOTION_DOT = .4862E-4
MEAN_MOTION_DDOT = 0

CCSDS_OMM_VERS = 2.0
CREATION_DATE  = 
ORIGINATOR     = 

OBJECT_NAME    = CZ-2C R/B
OBJECT_ID      = 2007-010B
CENTER_NAME    = EARTH
REF_FRAME      = TEME
TIME_SYSTEM    = UTC
MEAN_ELEMENT_THEORY = SGP/SGP4

EPOCH          = 2026-02-09T19:51:43.688736
MEAN_MOTION    = 14.20236438
ECCENTRICITY   = .0059236
INCLINATION    = 98.3970
RA_OF_ASC_NODE = 155.5055
ARG_OF_PERICENTER = 16.3559
MEAN_ANOMALY   = 343.9512

EPHEMERIS_TYPE = 0
CLASSIFICATION_TYPE = U
NORAD_CAT_ID   = 31114
ELEMENT_SET_NO = 999
REV_AT_EPOCH   = 97576
BSTAR          = .79452E-4
MEAN_MOTION_DOT = .132E-5
MEAN_MOTION_DDOT = 0

CCSDS_OMM_VERS = 2.0
CREATION_DATE  = 
ORIGINATOR     = 

OBJECT_NAME    = COSMO-SKYMED 1
OBJECT_ID      = 2007-023A
CENTER_NAME    = EARTH
REF_FRAME      = TEME
TIME_SYSTEM    = UTC
MEAN_ELEMENT_THEORY = SGP/SGP4

EPOCH          = 2026-02-09T20:20:30.548256
MEAN_MOTION    = 14.96310948
ECCENTRICITY   = .0000845
INCLINATION    = 97.8858
RA_OF_ASC_NODE = 231.6616
ARG_OF_PERICENTER = 81.9279
MEAN_ANOMALY   = 278.2038

EPHEMERIS_TYPE = 0
CLASSIFICATION_TYPE = U
NORAD_CAT_ID   = 31598
ELEMENT_SET_NO = 999
REV_AT_EPOCH   = 1074
BSTAR          = .33376E-3
MEAN_MOTION_DOT = .3714E-4
MEAN_MOTION_DDOT = 0

CCSDS_OMM_VERS = 2.0
CREATION_DATE  = 
ORIGINATOR     = 

OBJECT_NAME    = COSMOS 2428
OBJECT_ID      = 2007-029A
CENTER_NAME    = EARTH
REF_FRAME      = TEME
TIME_SYSTEM    = UTC
MEAN_ELEMENT_THEORY = SGP/SGP4

EPOCH          = 2026-02-09T18:47:28.787712
MEAN_MOTION    = 14.12933628
ECCENTRICITY   = .0007371
INCLINATION    = 70.9396
RA_OF_ASC_NODE = 261.9238
ARG_OF_PERICENTER = 307.7855
MEAN_ANOMALY   = 52.2598

EPHEMERIS_TYPE = 0
CLASSIFICATION_TYPE = U
NORAD_CAT_ID   = 31792
ELEMENT_SET_NO = 999
REV_AT_EPOCH   = 96015
BSTAR          = .19518E-3
MEAN_MOTION_DOT = .316E-5
MEAN_MOTION_DDOT = 0

CCSDS_OMM_VERS = 2.0
CREATION_DATE  = 
ORIGINATOR     = 

OBJECT_NAME    = SL-16 R/B
OBJECT_ID      = 2007-029B
CENTER_NAME    = EARTH
REF_FRAME      = TEME
TIME_SYSTEM    = UTC
MEAN_ELEMENT_THEORY = SGP/SGP4

EPOCH          = 2026-02-09T18:47:05.919360
MEAN_MOTION    = 14.14832878
ECCENTRICITY   = .000199
INCLINATION    = 70.9736
RA_OF_ASC_NODE = 231.0453
ARG_OF_PERICENTER = 278.2943
MEAN_ANOMALY   = 165.1283

EPHEMERIS_TYPE = 0
CLASSIFICATION_TYPE = U
NORAD_CAT_ID   = 31793
ELEMENT_SET_NO = 999
REV_AT_EPOCH   = 96142
BSTAR          = .22517E-3
MEAN_MOTION_DOT = .387E-5
MEAN_MOTION_DDOT = 0

CCSDS_OMM_VERS = 2.0
CREATION_DATE  = 
ORIGINATOR     = 

OBJECT_NAME    = KORONAS-FOTON
OBJECT_ID      = 2009-003A
CENTER_NAME    = EARTH
REF_FRAME      = TEME
TIME_SYSTEM    = UTC
MEAN_ELEMENT_THEORY = SGP/SGP4

EPOCH          = 2026-02-09T19:30:05.222016
MEAN_MOTION    = 15.42579426
ECCENTRICITY   = .0008957
INCLINATION    = 82.4318
RA_OF_ASC_NODE = 304.8414
ARG_OF_PERICENTER = 256.9324
MEAN_ANOMALY   = 103.0924

EPHEMERIS_TYPE = 0
CLASSIFICATION_TYPE = U
NORAD_CAT_ID   = 33504
ELEMENT_SET_NO = 999
REV_AT_EPOCH   = 94144
BSTAR          = .25038E-3
MEAN_MOTION_DOT = .1093E-3
MEAN_MOTION_DDOT = 0

CCSDS_OMM_VERS = 2.0
CREATION_DATE  = 
ORIGINATOR     = 

OBJECT_NAME    = CZ-2C R/B
OBJECT_ID      = 2011-030B
CENTER_NAME    = EARTH
REF_FRAME      = TEME
TIME_SYSTEM    = UTC
MEAN_ELEMENT_THEORY = SGP/SGP4

EPOCH          = 2026-02-09T20:16:56.334144
MEAN_MOTION    = 14.81113393
ECCENTRICITY   = .0054232
INCLINATION    = 97.8495
RA_OF_ASC_NODE = 358.6783
ARG_OF_PERICENTER = 81.1633
MEAN_ANOMALY   = 332.4301

EPHEMERIS_TYPE = 0
CLASSIFICATION_TYPE = U
NORAD_CAT_ID   = 37731
ELEMENT_SET_NO = 999
REV_AT_EPOCH   = 78597
BSTAR          = .22944E-3
MEAN_MOTION_DOT = .1773E-4
MEAN_MOTION_DDOT = 0

CCSDS_OMM_VERS = 2.0
CREATION_DATE  = 
ORIGINATOR     = 

OBJECT_NAME    = H-2A R/B
OBJECT_ID      = 2012-025E
CENTER_NAME    = EARTH
REF_FRAME      = TEME
TIME_SYSTEM    = UTC
MEAN_ELEMENT_THEORY = SGP/SGP4

EPOCH          = 2026-02-09T19:40:02.335872
MEAN_MOTION    = 14.94918659
ECCENTRICITY   = .0045688
INCLINATION    = 98.4677
RA_OF_ASC_NODE = 5.6523
ARG_OF_PERICENTER = 45.0691
MEAN_ANOMALY   = 315.4219

EPHEMERIS_TYPE = 0
CLASSIFICATION_TYPE = U
NORAD_CAT_ID   = 38341
ELEMENT_SET_NO = 999
REV_AT_EPOCH   = 74405
BSTAR          = .36889E-3
MEAN_MOTION_DOT = .404E-4
MEAN_MOTION_DDOT = 0

CCSDS_OMM_VERS = 2.0
CREATION_DATE  = 
ORIGINATOR     = 

OBJECT_NAME    = SHIJIAN-16 (SJ-16)
OBJECT_ID      = 2013-057A
CENTER_NAME    = EARTH
REF_FRAME      = TEME
TIME_SYSTEM    = UTC
MEAN_ELEMENT_THEORY = SGP/SGP4

EPOCH          = 2026-02-09T20:58:11.373600
MEAN_MOTION    = 14.92239718
ECCENTRICITY   = .0016792
INCLINATION    = 74.9707
RA_OF_ASC_NODE = 237.7430
ARG_OF_PERICENTER = 182.0471
MEAN_ANOMALY   = 178.0651

EPHEMERIS_TYPE = 0
CLASSIFICATION_TYPE = U
NORAD_CAT_ID   = 39358
ELEMENT_SET_NO = 999
REV_AT_EPOCH   = 66735
BSTAR          = .52353E-4
MEAN_MOTION_DOT = .506E-5
MEAN_MOTION_DDOT = 0

